[{"OBJECT_NAME":"STARLINK-33659","OBJECT_ID":"2025-069N","EPOCH":"2026-03-09T12:20:13.378272","MEAN_MOTION":15.30219919,"ECCENTRICITY":0.00012439,"INCLINATION":53.159,"RA_OF_ASC_NODE":143.5893,"ARG_OF_PERICENTER":47.2398,"MEAN_ANOMALY":312.8707,"EPHEMERIS_TYPE":0,"CLASSIFICATION_TYPE":"U","NORAD_CAT_ID":63445,"ELEMENT_SET_NO":999,"REV_AT_EPOCH":5332,"BSTAR":0.00072406312,"MEAN_MOTION_DOT":0.0002116,"MEAN_MOTION_DDOT":0},{"OBJECT_NAME":"PEGASUS DEB","OBJECT_ID":"1994-029AES","EPOCH":"2026-03-06T17:32:52.876320","MEAN_MOTION":15.2736598,"ECCENTRICITY":0.00781089,"INCLINATION":81.9406,"RA_OF_ASC_NODE":336.1125,"ARG_OF_PERICENTER":102.4632,"MEAN_ANOMALY":258.5359,"EPHEMERIS_TYPE":0,"CLASSIFICATION_TYPE":"U","NORAD_CAT_ID":39307,"ELEMENT_SET_NO":999,"REV_AT_EPOCH":76792,"BSTAR":0.0021826707,"MEAN_MOTION_DOT":0.00064449,"MEAN_MOTION_DDOT":0}]
